STARLINK-30999          
1 58551U 23192W   26054.57908523 -.00000525  00000+0 -56056-5 0  9997
2 58551  53.1586 118.3167 0001162  75.7502 284.3627 15.30192877123963
STARLINK-31046          
1 58552U 23192X   26054.60328819 -.00001365  00000+0 -33995-4 0  9995
2 58552  53.1608 128.5248 0001230  77.6035 282.5103 15.30186446123829
STARLINK-31044          
1 58589U 23200A   26054.82996825 -.00000055  00000+0  10991-4 0  9992
2 58589  43.0023 245.1911 0001282 265.4945  94.5751 15.02532357121514
STARLINK-31062          
1 58590U 23200B   26054.58216891  .00000711  00000+0  67690-4 0  9991
2 58590  43.0017 248.4939 0000665 271.5567  88.5199 15.02526852121452
STARLINK-31096          
1 58592U 23200D   26052.94785799  .00000389  00000+0  43882-4 0  9997
2 58592  43.0013 256.8780 0000887 258.9919 101.0823 15.02538664121216
STARLINK-31094          
1 58593U 23200E   26054.83335647  .01971282  00000+0  12465+0 0  9999
2 58593  42.9998 245.9085 0001590 292.3623 144.3938 15.05053961  5820
STARLINK-31075          
1 58594U 23200F   26054.83335647  .01884963  00000+0  11522+0 0  9992
2 58594  43.0005 245.7118 0000691   2.1933 154.4645 15.06463644  5561
STARLINK-30857          
1 58595U 23200G   26054.81010740  .00001129  00000+0  98585-4 0  9998
2 58595  43.0024 245.9154 0001217 251.2307 108.8403 15.02541288121507
STARLINK-31059          
1 58596U 23200H   26054.45244412 -.00000908  00000+0 -23471-4 0  9992
2 58596  43.0016  92.5290 0001292 248.2746 111.7968 15.27565391123275
STARLINK-31087          
1 58597U 23200J   26052.94206718  .00000044  00000+0  18330-4 0  9999
2 58597  43.0022 255.9788 0000977 235.6503 124.4247 15.02536492121115
STARLINK-31079          
1 58598U 23200K   26054.83335647  .00136476  00000+0  38975-2 0  9998
2 58598  42.9868 219.8761 0027398 293.4505 336.8511 15.34427685  5899
STARLINK-31052          
1 58600U 23200M   26054.26482681  .00015202  00000+0  11344-2 0  9994
2 58600  43.0022 248.7038 0002028 217.9992 142.0707 15.02655942121425
STARLINK-31074          
1 58601U 23200N   26054.79345857  .00001597  00000+0  13322-3 0  9997
2 58601  43.0016 245.7891 0000970 263.9939  96.0793 15.02538135121505
STARLINK-31071          
1 58602U 23200P   26054.78371218  .00000376  00000+0  23187-4 0  9992
2 58602  43.0009  87.2141 0001380 268.3926  91.6768 15.27571783123368
STARLINK-31080          
1 58603U 23200Q   26051.99806115 -.00000067  00000+0  10068-4 0  9994
2 58603  43.0009 260.9218 0000812 256.7847 103.2905 15.02534119120899
STARLINK-31088          
1 58604U 23200R   26054.78679786  .00000388  00000+0  43800-4 0  9992
2 58604  43.0015 245.7234 0001193 263.2389  96.8318 15.02534225121505
STARLINK-31038          
1 58605U 23200S   26054.58070456  .00000176  00000+0  28097-4 0  9996
2 58605  43.0026 246.7722 0001264 251.2240 108.8466 15.02534907121474
