[{"OBJECT_NAME":"STARLINK-30999","OBJECT_ID":"2023-192W","EPOCH":"2026-02-23T13:53:52.963872","MEAN_MOTION":15.30192877,"ECCENTRICITY":0.0001162,"INCLINATION":53.1586,"RA_OF_ASC_NODE":118.3167,"ARG_OF_PERICENTER":75.7502,"MEAN_ANOMALY":284.3627,"EPHEMERIS_TYPE":0,"CLASSIFICATION_TYPE":"U","NORAD_CAT_ID":58551,"ELEMENT_SET_NO":999,"REV_AT_EPOCH":12396,"BSTAR":-5.6056e-6,"MEAN_MOTION_DOT":-5.25e-6,"MEAN_MOTION_DDOT":0},{"OBJECT_NAME":"STARLINK-31046","OBJECT_ID":"2023-192X","EPOCH":"2026-02-23T14:28:44.099616","MEAN_MOTION":15.30186446,"ECCENTRICITY":0.000123,"INCLINATION":53.1608,"RA_OF_ASC_NODE":128.5248,"ARG_OF_PERICENTER":77.6035,"MEAN_ANOMALY":282.5103,"EPHEMERIS_TYPE":0,"CLASSIFICATION_TYPE":"U","NORAD_CAT_ID":58552,"ELEMENT_SET_NO":999,"REV_AT_EPOCH":12382,"BSTAR":-3.3995e-5,"MEAN_MOTION_DOT":-1.365e-5,"MEAN_MOTION_DDOT":0},{"OBJECT_NAME":"STARLINK-31044","OBJECT_ID":"2023-200A","EPOCH":"2026-02-23T19:55:09.256800","MEAN_MOTION":15.02532357,"ECCENTRICITY":0.0001282,"INCLINATION":43.0023,"RA_OF_ASC_NODE":245.1911,"ARG_OF_PERICENTER":265.4945,"MEAN_ANOMALY":94.5751,"EPHEMERIS_TYPE":0,"CLASSIFICATION_TYPE":"U","NORAD_CAT_ID":58589,"ELEMENT_SET_NO":999,"REV_AT_EPOCH":12151,"BSTAR":1.0991e-5,"MEAN_MOTION_DOT":-5.5e-7,"MEAN_MOTION_DDOT":0},{"OBJECT_NAME":"STARLINK-31062","OBJECT_ID":"2023-200B","EPOCH":"2026-02-23T13:58:19.393824","MEAN_MOTION":15.02526852,"ECCENTRICITY":6.65e-5,"INCLINATION":43.0017,"RA_OF_ASC_NODE":248.4939,"ARG_OF_PERICENTER":271.5567,"MEAN_ANOMALY":88.5199,"EPHEMERIS_TYPE":0,"CLASSIFICATION_TYPE":"U","NORAD_CAT_ID":58590,"ELEMENT_SET_NO":999,"REV_AT_EPOCH":12145,"BSTAR":6.769e-5,"MEAN_MOTION_DOT":7.11e-6,"MEAN_MOTION_DDOT":0},{"OBJECT_NAME":"STARLINK-31096","OBJECT_ID":"2023-200D","EPOCH":"2026-02-21T22:44:54.930336","MEAN_MOTION":15.02538664,"ECCENTRICITY":8.87e-5,"INCLINATION":43.0013,"RA_OF_ASC_NODE":256.878,"ARG_OF_PERICENTER":258.9919,"MEAN_ANOMALY":101.0823,"EPHEMERIS_TYPE":0,"CLASSIFICATION_TYPE":"U","NORAD_CAT_ID":58592,"ELEMENT_SET_NO":999,"REV_AT_EPOCH":12121,"BSTAR":4.3882e-5,"MEAN_MOTION_DOT":3.89e-6,"MEAN_MOTION_DDOT":0},{"OBJECT_NAME":"STARLINK-31094","OBJECT_ID":"2023-200E","EPOCH":"2026-02-23T20:00:01.999008","MEAN_MOTION":15.05053961,"ECCENTRICITY":0.000159,"INCLINATION":42.9998,"RA_OF_ASC_NODE":245.9085,"ARG_OF_PERICENTER":292.3623,"MEAN_ANOMALY":144.3938,"EPHEMERIS_TYPE":0,"CLASSIFICATION_TYPE":"U","NORAD_CAT_ID":58593,"ELEMENT_SET_NO":999,"REV_AT_EPOCH":582,"BSTAR":0.12465,"MEAN_MOTION_DOT":0.01971282,"MEAN_MOTION_DDOT":0},{"OBJECT_NAME":"STARLINK-31075","OBJECT_ID":"2023-200F","EPOCH":"2026-02-23T20:00:01.999008","MEAN_MOTION":15.06463644,"ECCENTRICITY":6.91e-5,"INCLINATION":43.0005,"RA_OF_ASC_NODE":245.7118,"ARG_OF_PERICENTER":2.1933,"MEAN_ANOMALY":154.4645,"EPHEMERIS_TYPE":0,"CLASSIFICATION_TYPE":"U","NORAD_CAT_ID":58594,"ELEMENT_SET_NO":999,"REV_AT_EPOCH":556,"BSTAR":0.11522,"MEAN_MOTION_DOT":0.01884963,"MEAN_MOTION_DDOT":0},{"OBJECT_NAME":"STARLINK-30857","OBJECT_ID":"2023-200G","EPOCH":"2026-02-23T19:26:33.279360","MEAN_MOTION":15.02541288,"ECCENTRICITY":0.0001217,"INCLINATION":43.0024,"RA_OF_ASC_NODE":245.9154,"ARG_OF_PERICENTER":251.2307,"MEAN_ANOMALY":108.8403,"EPHEMERIS_TYPE":0,"CLASSIFICATION_TYPE":"U","NORAD_CAT_ID":58595,"ELEMENT_SET_NO":999,"REV_AT_EPOCH":12150,"BSTAR":9.8585e-5,"MEAN_MOTION_DOT":1.129e-5,"MEAN_MOTION_DDOT":0},{"OBJECT_NAME":"STARLINK-31059","OBJECT_ID":"2023-200H","EPOCH":"2026-02-23T10:51:31.171968","MEAN_MOTION":15.27565391,"ECCENTRICITY":0.00012926,"INCLINATION":43.0016,"RA_OF_ASC_NODE":92.529,"ARG_OF_PERICENTER":248.2746,"MEAN_ANOMALY":111.7968,"EPHEMERIS_TYPE":0,"CLASSIFICATION_TYPE":"U","NORAD_CAT_ID":58596,"ELEMENT_SET_NO":999,"REV_AT_EPOCH":12327,"BSTAR":-2.3470989e-5,"MEAN_MOTION_DOT":-9.08e-6,"MEAN_MOTION_DDOT":0},{"OBJECT_NAME":"STARLINK-31087","OBJECT_ID":"2023-200J","EPOCH":"2026-02-21T22:36:34.604352","MEAN_MOTION":15.02536492,"ECCENTRICITY":9.77e-5,"INCLINATION":43.0022,"RA_OF_ASC_NODE":255.9788,"ARG_OF_PERICENTER":235.6503,"MEAN_ANOMALY":124.4247,"EPHEMERIS_TYPE":0,"CLASSIFICATION_TYPE":"U","NORAD_CAT_ID":58597,"ELEMENT_SET_NO":999,"REV_AT_EPOCH":12111,"BSTAR":1.833e-5,"MEAN_MOTION_DOT":4.4e-7,"MEAN_MOTION_DDOT":0},{"OBJECT_NAME":"STARLINK-31079","OBJECT_ID":"2023-200K","EPOCH":"2026-02-23T20:00:01.999008","MEAN_MOTION":15.34427685,"ECCENTRICITY":0.0027398,"INCLINATION":42.9868,"RA_OF_ASC_NODE":219.8761,"ARG_OF_PERICENTER":293.4505,"MEAN_ANOMALY":336.8511,"EPHEMERIS_TYPE":0,"CLASSIFICATION_TYPE":"U","NORAD_CAT_ID":58598,"ELEMENT_SET_NO":999,"REV_AT_EPOCH":589,"BSTAR":0.0038975,"MEAN_MOTION_DOT":0.00136476,"MEAN_MOTION_DDOT":0},{"OBJECT_NAME":"STARLINK-31052","OBJECT_ID":"2023-200M","EPOCH":"2026-02-23T06:21:21.036384","MEAN_MOTION":15.02655942,"ECCENTRICITY":0.0002028,"INCLINATION":43.0022,"RA_OF_ASC_NODE":248.7038,"ARG_OF_PERICENTER":217.9992,"MEAN_ANOMALY":142.0707,"EPHEMERIS_TYPE":0,"CLASSIFICATION_TYPE":"U","NORAD_CAT_ID":58600,"ELEMENT_SET_NO":999,"REV_AT_EPOCH":12142,"BSTAR":0.0011344,"MEAN_MOTION_DOT":0.00015202,"MEAN_MOTION_DDOT":0},{"OBJECT_NAME":"STARLINK-31074","OBJECT_ID":"2023-200N","EPOCH":"2026-02-23T19:02:34.820448","MEAN_MOTION":15.02538135,"ECCENTRICITY":9.7e-5,"INCLINATION":43.0016,"RA_OF_ASC_NODE":245.7891,"ARG_OF_PERICENTER":263.9939,"MEAN_ANOMALY":96.0793,"EPHEMERIS_TYPE":0,"CLASSIFICATION_TYPE":"U","NORAD_CAT_ID":58601,"ELEMENT_SET_NO":999,"REV_AT_EPOCH":12150,"BSTAR":0.00013322,"MEAN_MOTION_DOT":1.597e-5,"MEAN_MOTION_DDOT":0},{"OBJECT_NAME":"STARLINK-31071","OBJECT_ID":"2023-200P","EPOCH":"2026-02-23T18:48:32.732352","MEAN_MOTION":15.27571783,"ECCENTRICITY":0.000138,"INCLINATION":43.0009,"RA_OF_ASC_NODE":87.2141,"ARG_OF_PERICENTER":268.3926,"MEAN_ANOMALY":91.6768,"EPHEMERIS_TYPE":0,"CLASSIFICATION_TYPE":"U","NORAD_CAT_ID":58602,"ELEMENT_SET_NO":999,"REV_AT_EPOCH":12336,"BSTAR":2.3187e-5,"MEAN_MOTION_DOT":3.76e-6,"MEAN_MOTION_DDOT":0},{"OBJECT_NAME":"STARLINK-31080","OBJECT_ID":"2023-200Q","EPOCH":"2026-02-20T23:57:12.483360","MEAN_MOTION":15.02534119,"ECCENTRICITY":8.128e-5,"INCLINATION":43.0009,"RA_OF_ASC_NODE":260.9218,"ARG_OF_PERICENTER":256.7847,"MEAN_ANOMALY":103.2905,"EPHEMERIS_TYPE":0,"CLASSIFICATION_TYPE":"U","NORAD_CAT_ID":58603,"ELEMENT_SET_NO":999,"REV_AT_EPOCH":12089,"BSTAR":1.00684e-5,"MEAN_MOTION_DOT":-6.7e-7,"MEAN_MOTION_DDOT":0},{"OBJECT_NAME":"STARLINK-31088","OBJECT_ID":"2023-200R","EPOCH":"2026-02-23T18:52:59.335104","MEAN_MOTION":15.02534225,"ECCENTRICITY":0.0001193,"INCLINATION":43.0015,"RA_OF_ASC_NODE":245.7234,"ARG_OF_PERICENTER":263.2389,"MEAN_ANOMALY":96.8318,"EPHEMERIS_TYPE":0,"CLASSIFICATION_TYPE":"U","NORAD_CAT_ID":58604,"ELEMENT_SET_NO":999,"REV_AT_EPOCH":12150,"BSTAR":4.38e-5,"MEAN_MOTION_DOT":3.88e-6,"MEAN_MOTION_DDOT":0},{"OBJECT_NAME":"STARLINK-31038","OBJECT_ID":"2023-200S","EPOCH":"2026-02-23T13:56:12.873984","MEAN_MOTION":15.02534907,"ECCENTRICITY":0.0001264,"INCLINATION":43.0026,"RA_OF_ASC_NODE":246.7722,"ARG_OF_PERICENTER":251.224,"MEAN_ANOMALY":108.8466,"EPHEMERIS_TYPE":0,"CLASSIFICATION_TYPE":"U","NORAD_CAT_ID":58605,"ELEMENT_SET_NO":999,"REV_AT_EPOCH":12147,"BSTAR":2.8097e-5,"MEAN_MOTION_DOT":1.76e-6,"MEAN_MOTION_DDOT":0}]
